NUSAT-1 (FRESCO)        
1 41557U 16033B   22250.16570399  .00016345  00000+0  46193-3 0  9990
2 41557  97.3892 348.1044 0011736  87.6228   4.5434 15.36351670349921
BEESAT-4                
1 41619U 16040W   22250.08410764  .00014893  00000+0  46896-3 0  9993
2 41619  97.2103 298.6056 0009481 173.5533 186.5833 15.32974409333221
CAS-2T & KS-1Q          
1 41847U 16066G   22249.78521148  .00000401  00000+0  70843-4 0  9998
2 41847  98.5442 314.3435 0362734 326.7410  31.1442 14.38710098306048
NAYIF-1 (EO-88)         
1 42017U 17008BX  22249.75099006  .00016490  00000+0  46009-3 0  9996
2 42017  97.2625 314.7799 0003255 327.2055  32.8987 15.36810874309558
ZHUHAI-1 02 (CAS-4B)    
1 42759U 17034B   22250.22486612  .00003922  00000+0  23469-3 0  9996
2 42759  43.0152 241.8149 0008059  82.0285  29.9897 15.12370318288733
ZHUHAI-1 01 (CAS-4A)    
1 42761U 17034D   22250.11905369  .00003652  00000+0  21896-3 0  9994
2 42761  43.0166 241.1269 0008194  84.2320   1.5173 15.12452846288720
MAX VALIER SAT          
1 42778U 17036P   22249.61755453  .00007902  00000+0  29082-3 0  9991
2 42778  97.1997 287.9592 0011683  46.5361 313.6849 15.28053608289290
RADFXSAT (FOX-1B)       
1 43017U 17073E   22249.68184511  .00003441  00000+0  26177-3 0  9993
2 43017  97.6633 140.5368 0245349 281.8507  75.5289 14.81929454259140
FOX-1D (AO-92)          
1 43137U 18004AC  22249.78044869  .00010133  00000+0  34395-3 0  9990
2 43137  97.3638 324.2542 0008902  78.2469 281.9770 15.30663629258788
DIWATA-2B               
1 43678U 18084H   22250.05555734  .00001372  00000+0  14005-3 0  9999
2 43678  97.9821  24.3334 0010110  24.8894 335.2793 14.92281187210023
ES'HAIL 2               
1 43700U 18090A   22249.85441094  .00000127  00000+0  00000+0 0  9994
2 43700   0.0225 244.0999 0002142 311.0033 124.2013  1.00272397 13842
FOX-1CLIFF (AO-95)      
1 43770U 18099N   22250.15928668  .00001857  00000+0  16712-3 0  9994
2 43770  97.6135 314.3771 0014128   6.1708 353.9761 14.96749763205230
ITASAT 1                
1 43786U 18099AE  22249.74471107  .00002156  00000+0  19265-3 0  9994
2 43786  97.6176 314.9345 0014698   2.9398 357.1907 14.96853511205219
JY1SAT (JO-97)          
1 43803U 18099AX  22249.73371948  .00003364  00000+0  29363-3 0  9997
2 43803  97.6138 314.7041 0014247   2.6036 357.5258 14.97416220205232
UWE-4                   
1 43880U 18111E   22249.74145168  .00003234  00000+0  27485-3 0  9990
2 43880  97.6586 154.6215 0012778  53.6949 306.5452 14.98497658201875
NEXUS (FO-99)           
1 43937U 19003F   22249.64450202  .00012745  00000+0  40855-3 0  9994
2 43937  97.1263 279.9034 0018659 217.8608 142.1324 15.32308331202405
PSAT2 (NO-104)          
1 44354U 19036R   22249.59671964  .00085207 -45983-5  66080-3 0  9995
2 44354  28.5247 332.4848 0203273 170.6010 189.8475 15.47643128177237
JAISAT-1                
1 44419U 19038F   22249.72164274  .00007997  00000+0  39109-3 0  9991
2 44419  97.6428 220.5911 0017862 204.3565 155.6826 15.18354645175388
DUCHIFAT-3              
1 44854U 19089C   22250.25161044  .00004863  00000+0  37439-3 0  9995
2 44854  36.9666 335.2498 0007689 172.3197 217.4047 15.01513803150230
CAS-6 (TIANQIN 1)       
1 44881U 19093C   22250.15256496  .00000371  00000+0  53672-4 0  9993
2 44881  97.8885 328.1792 0013567 281.4655  78.5061 14.81801211146877
RS-44 & BREEZE-KM R/B   
1 44909U 19096E   22249.81368870  .00000008  00000+0 -19792-4 0  9991
2 44909  82.5252 176.2324 0218118 129.3020 232.7648 12.79714603125915
ORBITAL FACTORY 2 (OF-2)
1 45113U 19071C   22249.75124082  .00033286  00000+0  60692-3 0  9997
2 45113  51.6383  18.2700 0008151 109.9039 250.2828 15.49104814145965
HUSKYSAT-1 (HO-107)     
1 45119U 19071J   22249.62365714  .00028584  00000+0  54904-3 0  9992
2 45119  51.6381  19.6362 0008281 105.4409 254.7494 15.47688435145922
BY70-2                  
1 45857U 20042B   22250.08508653  .00007424  00000+0  97263-3 0  9999
2 45857  97.9502 326.1808 0010322 204.0194 156.0544 14.80610578117531
SALSAT                  
1 46495U 20068K   22249.82781829  .00002270  00000+0  16493-3 0  9994
2 46495  97.7333 191.1841 0016664   9.2567 350.8962 15.04792874106422
BY70-3                  
1 46839U 20079N   22250.12218936  .00030034  00000+0  63564-3 0  9997
2 46839  97.1917 321.2897 0005640  52.2152  12.1812 15.45061091102842
RADFXSAT-2 (AO-109)     
1 47311U 21002C   22249.72484131  .00008507  00000+0  33090-3 0  9997
2 47311  60.6855  56.0551 0030724  33.5996 326.7033 15.26367496 90867
UVSQ-SAT                
1 47438U 21006AB  22249.72597010  .00005814  00000+0  30178-3 0  9994
2 47438  97.4306 307.0779 0011381   1.2865 358.8396 15.16450583 89597
DIY-1 (ARDUIQUBE)       
1 47963U 21022AH  22249.54587942  .00017511  00000+0  92410-3 0  9992
2 47963  97.5226 150.0476 0014855 205.7022 154.3474 15.15506947 79227
XW-3 (CAS-9)            
1 50466U 21131B   22250.03994168  .00000161  00000+0  67289-4 0  9993
2 50466  98.5766 327.2412 0003405 260.1438  99.9365 14.38519549 36640
TEVEL-3                 
1 50988U 22002E   22250.13082786  .00009318  00000+0  49760-3 0  9991
2 50988  97.4758 315.7714 0010746 137.3786 253.0047 15.15288021 35780
TEVEL-8                 
1 50989U 22002F   22250.13879748  .00008966  00000+0  47968-3 0  9990
2 50989  97.4771 315.8067 0010760 135.3900 255.2052 15.15233524 35788
TEVEL-5                 
1 50998U 22002Q   22250.13083837  .00009528  00000+0  50137-3 0  9993
2 50998  97.4747 315.9115 0012500 134.2956 285.1531 15.15785082 35795
TEVEL-6                 
1 50999U 22002R   22250.12482951  .00009569  00000+0  50345-3 0  9999
2 50999  97.4746 315.9032 0012186 133.6904 256.1627 15.15790438 35794
TEVEL-1                 
1 51013U 22002AF  22250.14416635  .00009116  00000+0  48725-3 0  9992
2 51013  97.4759 315.7607 0010766 137.5646 306.1472 15.15260485 35787
TEVEL-7                 
1 51062U 22002CG  22250.14057414  .00008803  00000+0  47112-3 0  9993
2 51062  97.4760 315.7913 0010722 135.7538 254.7902 15.15225285 35780
TEVEL-4                 
1 51063U 22002CH  22250.14150641  .00008646  00000+0  46294-3 0  9995
2 51063  97.4758 315.7888 0010762 135.8279 254.7183 15.15215173 35782
TEVEL-2                 
1 51069U 22002CP  22250.13224318  .00009069  00000+0  48449-3 0  9997
2 51069  97.4755 315.7556 0010765 137.4477 252.9919 15.15280070 35783
YUZGU 9 (RS3S)          
1 53308U 98067TT  22250.08230235  .00041276  00000+0  64853-3 0  9991
2 53308  51.6407 290.3425 0000679 137.8728 222.2314 15.53219607  7436
YUZGU 7 (RS1S)          
1 53309U 98067TU  22250.08077986  .00042420  00000+0  66399-3 0  9993
2 53309  51.6404 290.3310 0000775 217.7202 142.3735 15.53311935  7389
YUZGU 11 (RS5S)         
1 53310U 98067TV  22250.01758832  .00051978  00000+0  81358-3 0  9994
2 53310  51.6409 290.6610 0000534 224.0699 136.0249 15.53222910  7403
YUZGU 12 (RS6S)         
1 53311U 98067TW  22250.01335710  .00042147  00000+0  65626-3 0  9999
2 53311  51.6402 290.6304 0000929 110.2005 249.9085 15.53459890  7425
TSIOLKOVSKY-RYAZAN 1 (*)
1 53312U 98067TX  22250.01482727  .00042615  00000+0  66579-3 0  9999
2 53312  51.6408 290.6413 0000964 225.7461 134.3450 15.53361819  7369
TSIOLKOVSKY-RYAZAN 2 (*)
1 53313U 98067TY  22250.01353340  .00042348  00000+0  66094-3 0  9993
2 53313  51.6407 290.6332 0000626 257.4209 102.6711 15.53393158  7411
YUZGU 10 (RS4S)         
1 53321U 98067TZ  22250.01841201  .00042777  00000+0  67142-3 0  9991
2 53321  51.6411 290.6677 0000465 164.7987 195.3017 15.53231764  7413
RS29S (SXC3-2110 CYCLO*)
1 53373U 22096D   22250.07231846  .00011951  00000+0  48466-3 0  9999
2 53373  97.4327 151.3245 0003774  89.0143  22.7209 15.24772389  4387
RS32S (SXC3-212 MONITO*)
1 53374U 22096E   22250.07175928  .00011386  00000+0  46046-3 0  9992
2 53374  97.4337 151.3268 0003534  82.4213  37.2347 15.24879979  4380
RS34S (SXC3-218 KUZBAS*)
1 53375U 22096F   22250.20863273  .00009631  00000+0  39021-3 0  9990
2 53375  97.4342 151.4633 0003537  80.7738  70.5264 15.24862122  4403
RS23S (SXC3-21 UTMN)    
1 53376U 22096G   22250.20793069  .00008530  00000+0  34570-3 0  9997
2 53376  97.4334 151.4652 0003408  83.0321  68.2704 15.24892397  4407
RS28S (SXC3-214 MIET-A*)
1 53377U 22096H   22250.20741190  .00009558  00000+0  38657-3 0  9997
2 53377  97.4345 151.4670 0003587  81.1098  70.2345 15.24925443  4401
RS26S (KAI-1)           
1 53378U 22096J   22250.13887664  .00008509  00000+0  34443-3 0  9991
2 53378  97.4333 151.3999 0003350  76.1753  62.2765 15.24933648  4393
RS19S (SXC3-219 ISOI)   
1 53381U 22096M   22250.19926006  .00009214  00000+0  36788-3 0  9993
2 53381  97.4339 151.4777 0004340  18.7594 133.6882 15.25368414  4402
RS21S (CUBESX-HSE-2)    
1 53383U 22096P   22250.19814066  .00008990  00000+0  35844-3 0  9999
2 53383  97.4339 151.4795 0004476  16.3454 136.1957 15.25420884  4404
RS30S (SXC3-217 SIREN)  
1 53384U 22096Q   22250.19782825  .00008346  00000+0  33293-3 0  9998
2 53384  97.4328 151.4779 0004344  16.0064 136.7724 15.25428498  4400
RS20S (GEOSCAN-EDELVEIS)
1 53385U 22096R   22250.19472948  .00011992  00000+0  47370-3 0  9993
2 53385  97.4324 151.4833 0004878  13.7736 139.3440 15.25649063  4430
RS33S (SXC3-215 VIZARD) 
1 53386U 22096S   22250.12189442  .00013723  00000+0  53715-3 0  9995
2 53386  97.4327 151.4234 0005722  12.6430 124.6936 15.25917940  4414
